H1 CPF 01  gfz 2022 09 15 00  7581 tandemx   
H2 1003001  6202 36605    2022 09 15 00 59 42 2022 09 20 00 00 42   120 1 1  0 0 0
H9
10 0 59839  46062.000000  0     631227.854  -1304175.235   6723771.708
10 0 59839  46182.000000  0     407890.071  -2172147.067   6513834.412
10 0 59839  46302.000000  0     162613.840  -2998112.915   6189423.799
10 0 59839  46422.000000  0     -99458.320  -3767306.979   5756210.236
10 0 59839  46542.000000  0    -372639.300  -4466036.526   5221771.676
10 0 59839  46662.000000  0    -650815.657  -5081929.101   4595469.147
10 0 59839  46782.000000  0    -927579.406  -5604161.099   3888290.485
10 0 59839  46902.000000  0   -1196370.228  -6023658.454   3112659.839
10 0 59839  47022.000000  0   -1450624.076  -6333263.281   2282219.681
10 0 59839  47142.000000  0   -1683925.026  -6527865.550   1411589.676
10 0 59839  47262.000000  0   -1890158.154  -6604494.976    516103.661
10 0 59839  47382.000000  0   -2063656.471  -6562368.791   -388468.713
10 0 59839  47502.000000  0   -2199339.422  -6402895.653  -1286208.488
10 0 59839  47622.000000  0   -2292839.883  -6129635.572  -2161335.957
10 0 59839  47742.000000  0   -2340616.604  -5748217.140  -2998495.464
10 0 59839  47862.000000  0   -2340048.887  -5266213.602  -3783030.383
10 0 59839  47982.000000  0   -2289510.986  -4692981.435  -4501241.161
10 0 59839  48102.000000  0   -2188425.016  -4039467.636  -5140621.211
10 0 59839  48222.000000  0   -2037292.009  -3317991.423  -5690067.906
10 0 59839  48342.000000  0   -1837700.787  -2542005.149  -6140066.687
10 0 59839  48462.000000  0   -1592314.045  -1725838.602  -6482845.572
10 0 59839  48582.000000  0   -1304832.576   -884432.894  -6712497.418
10 0 59839  48702.000000  0    -979939.646    -33069.313  -6825070.845
10 0 59839  48822.000000  0    -623225.441    812902.768  -6818630.222
10 0 59839  48942.000000  0    -241092.202   1638335.376  -6693285.116
10 0 59839  49062.000000  0     159356.916   2428545.840  -6451188.548
10 0 59839  49182.000000  0     570445.671   3169572.656  -6096506.163
10 0 59839  49302.000000  0     984068.603   3848420.223  -5635352.318
10 0 59839  49422.000000  0    1391846.221   4453286.278  -5075694.187
10 0 59839  49542.000000  0    1785290.680   4973771.026  -4427226.446
10 0 59839  49662.000000  0    2155979.273   5401063.770  -3701213.694
10 0 59839  49782.000000  0    2495731.485   5728101.018  -2910303.266
10 0 59839  49902.000000  0    2796786.641   5949694.296  -2068311.351
10 0 59839  50022.000000  0    3051978.235   6062623.488  -1189983.814
10 0 59839  50142.000000  0    3254899.650   6065692.029   -290735.593
10 0 59839  50262.000000  0    3400056.536   5959741.223    613625.487
10 0 59839  50382.000000  0    3483002.401   5747623.375   1507183.563
10 0 59839  50502.000000  0    3500454.481   5434135.334   2374202.667
10 0 59839  50622.000000  0    3450385.493   5025913.400   3199412.647
10 0 59839  50742.000000  0    3332089.899   4531289.949   3968286.058
10 0 59839  50862.000000  0    3146223.540   3960118.525   4667298.292
10 0 59839  50982.000000  0    2894812.023   3323570.816   5284170.123
10 0 59839  51102.000000  0    2581230.350   2633909.413   5808080.640
10 0 59839  51222.000000  0    2210158.259   1904246.277   6229852.162
10 0 59839  51342.000000  0    1787508.905   1148288.712   6542106.819
10 0 59839  51462.000000  0    1320331.552    380078.322   6739388.842
10 0 59839  51582.000000  0     816692.065   -386269.344   6818253.446
10 0 59839  51702.000000  0     285533.213  -1136823.486   6777324.781
10 0 59839  51822.000000  0    -263484.464  -1858091.651   6617318.491
10 0 59839  51942.000000  0    -820158.463  -2537262.221   6341029.423
10 0 59839  52062.000000  0   -1373932.944  -3162432.343   5953284.238
10 0 59839  52182.000000  0   -1914096.027  -3722817.198   5460861.837
10 0 59839  52302.000000  0   -2429986.581  -4208939.663   4872382.981
10 0 59839  52422.000000  0   -2911207.204  -4612797.100   4198166.467
10 0 59839  52542.000000  0   -3347837.117  -4927999.979   3450051.903
10 0 59839  52662.000000  0   -3730638.708  -5149879.046   2641192.546
10 0 59839  52782.000000  0   -4051253.635  -5275558.990   1785823.287
10 0 59839  52902.000000  0   -4302385.691  -5303996.995    899006.495
10 0 59839  53022.000000  0   -4477964.610  -5235983.864     -3639.548
10 0 59839  53142.000000  0   -4573286.781  -5074108.235   -906223.652
10 0 59839  53262.000000  0   -4585128.821  -4822684.183  -1792871.133
10 0 59839  53382.000000  0   -4511830.212  -4487643.093  -2648012.096
10 0 59839  53502.000000  0   -4353343.534  -4076393.580  -3456660.923
10 0 59839  53622.000000  0   -4111251.771  -3597654.650  -4204681.217
10 0 59839  53742.000000  0   -3788753.296  -3061266.741  -4879031.694
10 0 59839  53862.000000  0   -3390615.234  -2477984.788  -5467988.946
10 0 59839  53982.000000  0   -2923096.843  -1859259.068  -5961342.913
10 0 59839  54102.000000  0   -2393845.817  -1217008.731  -6350563.954
10 0 59839  54222.000000  0   -1811768.464   -563392.079  -6628939.391
10 0 59839  54342.000000  0   -1186877.257     89421.287  -6791677.061
10 0 59839  54462.000000  0    -530120.402    729471.714  -6835977.701
10 0 59839  54582.000000  0     146806.120   1345222.928  -6761078.163
10 0 59839  54702.000000  0     831660.800   1925764.053  -6568263.220
10 0 59839  54822.000000  0    1511872.879   2460999.051  -6260848.334
10 0 59839  54942.000000  0    2174768.580   2941820.351  -5844128.514
10 0 59839  55062.000000  0    2807803.567   3360263.967  -5325295.980
10 0 59839  55182.000000  0    3398797.704   3709642.781  -4713327.006
10 0 59839  55302.000000  0    3936170.025   3984658.317  -4018838.706
10 0 59839  55422.000000  0    4409169.089   4181486.709  -3253914.818
10 0 59839  55542.000000  0    4808093.359   4297836.628  -2431902.138
10 0 59839  55662.000000  0    5124495.178   4332977.001  -1567181.164
10 0 59839  55782.000000  0    5351365.005   4287734.042   -674914.435
10 0 59839  55902.000000  0    5483289.013   4164456.676    229223.154
10 0 59839  56022.000000  0    5516577.059   3966951.704   1129325.410
10 0 59839  56142.000000  0    5449357.994   3700388.459   2009542.901
10 0 59839  56262.000000  0    5281638.023   3371175.079   2854371.222
10 0 59839  56382.000000  0    5015319.731   2986810.973   3648932.809
10 0 59839  56502.000000  0    4654182.414   2555718.174   4379245.710
10 0 59839  56622.000000  0    4203824.481   2087055.668   5032471.573
10 0 59839  56742.000000  0    3671571.895   1590525.100   5597142.556
10 0 59839  56862.000000  0    3066349.874   1076168.035   6063361.256
10 0 59839  56982.000000  0    2398525.628    554160.725   6422967.592
10 0 59839  57102.000000  0    1679726.194     34613.462   6669674.151
10 0 59839  57222.000000  0     922633.624   -472623.928   6799171.904
10 0 59839  57342.000000  0     140758.723   -958148.789   6809201.694
10 0 59839  57462.000000  0    -651800.708  -1413179.379   6699590.161
10 0 59839  57582.000000  0   -1440613.677  -1829713.663   6472251.762
10 0 59839  57702.000000  0   -2211177.192  -2200669.748   6131155.882
10 0 59839  57822.000000  0   -2949180.729  -2520005.981   5682263.145
10 0 59839  57942.000000  0   -3640774.691  -2782822.112   5133429.966
10 0 59839  58062.000000  0   -4272835.713  -2985437.041   4494275.657
10 0 59839  58182.000000  0   -4833220.745  -3125441.043   3776017.615
10 0 59839  58302.000000  0   -5311006.417  -3201721.581   2991277.496
10 0 59839  58422.000000  0   -5696709.294  -3214463.111   2153861.160
10 0 59839  58542.000000  0   -5982482.054  -3165120.777   1278513.392
10 0 59839  58662.000000  0   -6162278.402  -3056366.723    380651.900
10 0 59839  58782.000000  0   -6231982.910  -2892010.358   -523911.588
10 0 59839  58902.000000  0   -6189503.338  -2676895.748  -1419259.104
10 0 59839  59022.000000  0   -6034820.294  -2416777.031  -2289656.499
10 0 59839  59142.000000  0   -5769994.314  -2118176.671  -3119836.469
10 0 59839  59262.000000  0   -5399132.444  -1788230.508  -3895270.335
10 0 59839  59382.000000  0   -4928314.449  -1434523.304  -4602422.808
10 0 59839  59502.000000  0   -4365482.240  -1064919.161  -5228985.275
10 0 59839  59622.000000  0   -3720294.449   -687390.367  -5764083.869
10 0 59839  59742.000000  0   -3003950.842   -309849.195  -6198458.183
10 0 59839  59862.000000  0   -2228991.551     60013.837  -6524609.782
10 0 59839  59982.000000  0   -1409074.507    414881.705  -6736920.088
10 0 59839  60102.000000  0    -558735.689    747950.234  -6831736.453
10 0 59839  60222.000000  0     306863.592   1053054.889  -6807427.531
10 0 59839  60342.000000  0    1172199.267   1324780.918  -6664408.533
10 0 59839  60462.000000  0    2021656.858   1558557.341  -6405137.520
10 0 59839  60582.000000  0    2839807.889   1750733.443  -6034077.589
10 0 59839  60702.000000  0    3611686.240   1898635.324  -5557627.204
10 0 59839  60822.000000  0    4323059.208   2000602.296  -4984020.377
10 0 59839  60942.000000  0    4960692.395   2056003.393  -4323196.578
10 0 59839  61062.000000  0    5512601.744   2065232.469  -3586638.473
10 0 59839  61182.000000  0    5968286.530   2029681.612  -2787181.113
10 0 59839  61302.000000  0    6318940.248   1951693.703  -1938794.779
10 0 59839  61422.000000  0    6557632.538   1834494.732  -1056341.838
10 0 59839  61542.000000  0    6679456.485   1682106.261   -155314.198
10 0 59839  61662.000000  0    6681637.065   1499240.094    748445.198
10 0 59839  61782.000000  0    6563596.174   1291178.622   1639027.360
10 0 59839  61902.000000  0    6326977.051   1063643.186   2500746.092
10 0 59839  62022.000000  0    5975620.987    822652.882   3318423.825
10 0 59839  62142.000000  0    5515500.581    574379.068   4077666.159
10 0 59839  62262.000000  0    4954609.012    324998.400   4765119.669
10 0 59839  62382.000000  0    4302812.684     80549.495   5368707.769
10 0 59839  62502.000000  0    3571667.213   -153205.802   5877842.765
99
